[{"OBJECT_NAME":"STARLINK-34687","OBJECT_ID":"2025-157F","EPOCH":"2026-03-09T04:10:12.081216","MEAN_MOTION":15.301956,"ECCENTRICITY":0.00010684,"INCLINATION":53.1608,"RA_OF_ASC_NODE":348.1452,"ARG_OF_PERICENTER":88.0554,"MEAN_ANOMALY":272.0569,"EPHEMERIS_TYPE":0,"CLASSIFICATION_TYPE":"U","NORAD_CAT_ID":64909,"ELEMENT_SET_NO":999,"REV_AT_EPOCH":3599,"BSTAR":0.0003065117,"MEAN_MOTION_DOT":8.728e-5,"MEAN_MOTION_DDOT":0},{"OBJECT_NAME":"CZ-4B R\/B","OBJECT_ID":"2024-208C","EPOCH":"2026-03-09T16:49:23.143584","MEAN_MOTION":15.26980605,"ECCENTRICITY":0.01307988,"INCLINATION":97.9574,"RA_OF_ASC_NODE":113.1946,"ARG_OF_PERICENTER":150.913,"MEAN_ANOMALY":209.9477,"EPHEMERIS_TYPE":0,"CLASSIFICATION_TYPE":"U","NORAD_CAT_ID":61938,"ELEMENT_SET_NO":999,"REV_AT_EPOCH":7308,"BSTAR":0.00035146236,"MEAN_MOTION_DOT":0.000119,"MEAN_MOTION_DDOT":0}]
